[{"OBJECT_NAME":"STARLINK-3589","OBJECT_ID":"2022-025AT","EPOCH":"2026-03-09T06:35:55.537440","MEAN_MOTION":15.0882906,"ECCENTRICITY":0.0001474,"INCLINATION":53.218,"RA_OF_ASC_NODE":20.981,"ARG_OF_PERICENTER":116.3726,"MEAN_ANOMALY":243.7418,"EPHEMERIS_TYPE":0,"CLASSIFICATION_TYPE":"U","NORAD_CAT_ID":51997,"ELEMENT_SET_NO":999,"REV_AT_EPOCH":22084,"BSTAR":-5.5924397e-5,"MEAN_MOTION_DOT":-1.178e-5,"MEAN_MOTION_DDOT":0},{"OBJECT_NAME":"FENGYUN 1C DEB","OBJECT_ID":"1999-025DHR","EPOCH":"2026-03-09T03:17:03.366528","MEAN_MOTION":14.93788576,"ECCENTRICITY":0.01441183,"INCLINATION":98.9629,"RA_OF_ASC_NODE":141.136,"ARG_OF_PERICENTER":297.5682,"MEAN_ANOMALY":61.0956,"EPHEMERIS_TYPE":0,"CLASSIFICATION_TYPE":"U","NORAD_CAT_ID":33728,"ELEMENT_SET_NO":999,"REV_AT_EPOCH":99589,"BSTAR":0.0005846723,"MEAN_MOTION_DOT":7.528e-5,"MEAN_MOTION_DDOT":0}]
